      2.10          N: GNSS NAV DATA                        RINEX VERSION / TYPE
fic2rin                                 07/09/2019 00:19:30 PGM / RUN BY / DATE
                                                            END OF HEADER
27 19  7  8 10  0  0.0-1.790393143892e-04-1.068656274583e-11 0.000000000000e+00
    8.000000000000e+01 3.375000000000e+01 4.002309569401e-09-4.133598079009e-01
    1.663342118263e-06 7.152779842727e-03 8.884817361832e-06 5.153651990891e+03
    1.224000000000e+05 7.264316082001e-08 1.497915142247e+00 9.499490261078e-08
    9.784227123533e-01 2.174375000000e+02 5.131616694605e-01-7.973903573662e-09
   -9.143237995420e-11 1.000000000000e+00 2.061000000000e+03 0.000000000000e+00
    2.400000000000e+00 0.000000000000e+00 1.396983861923e-09 8.000000000000e+01
    1.152000000000e+05 4.000000000000e+00
30 19  7  8 10  0  0.0-1.389845274389e-04-7.503331289627e-12 0.000000000000e+00
    9.600000000000e+01 4.146875000000e+01 5.435583556730e-09 3.085941188603e+00
    2.253800630569e-06 4.139328375459e-03 5.830079317093e-06 5.153780721664e+03
    1.224000000000e+05-2.793967723846e-08-5.521354865221e-01-5.401670932770e-08
    9.406577908127e-01 2.602812500000e+02-2.937670078847e+00-8.496782496525e-09
    1.528635102359e-10 1.000000000000e+00 2.061000000000e+03 0.000000000000e+00
    2.400000000000e+00 0.000000000000e+00 3.725290298462e-09 9.600000000000e+01
    1.152000000000e+05 4.000000000000e+00
32 19  7  8 10  0  0.0-1.147435978055e-05 1.546140993014e-11 0.000000000000e+00
    9.200000000000e+01-6.781250000000e+00 4.605548982459e-09 2.687886403315e-01
   -3.613531589508e-07 3.173571778461e-03 1.095980405807e-05 5.153605331421e+03
    1.224000000000e+05 1.862645149231e-09-1.648769834087e+00 7.078051567078e-08
    9.563865008337e-01 1.694062500000e+02-2.479915545111e+00-8.001761876929e-09
    2.542963067476e-10 1.000000000000e+00 2.061000000000e+03 0.000000000000e+00
    2.400000000000e+00 0.000000000000e+00 4.656612873077e-10 9.200000000000e+01
    1.152000000000e+05 4.000000000000e+00
31 19  7  8 10  0  0.0 2.575293183327e-05-2.614797267597e-12 0.000000000000e+00
    9.500000000000e+01 4.556250000000e+01 4.947706091818e-09 2.771257139126e+00
    2.440065145493e-06 9.228377486579e-03 6.336718797684e-06 5.153641868591e+03
    1.224000000000e+05-2.402812242508e-07-5.654680098752e-01 2.793967723846e-08
    9.597484299459e-01 2.575937500000e+02 9.274732386975e-03-8.154982544899e-09
    1.914365455291e-10 1.000000000000e+00 2.061000000000e+03 0.000000000000e+00
    2.400000000000e+00 0.000000000000e+00-1.350417733192e-08 9.500000000000e+01
    1.152000000000e+05 4.000000000000e+00
18 19  7  8 10  0  0.0 6.819237023592e-05 2.955857780762e-12 0.000000000000e+00
    5.700000000000e+01 1.362500000000e+01 4.632335812523e-09-2.829683769950e+00
    8.065253496170e-07 1.556038029958e-02 4.269182682037e-06 5.153690429688e+03
    1.224000000000e+05 1.844018697739e-07 2.497647194791e+00 2.048909664154e-08
    9.548301886014e-01 2.930312500000e+02 1.404967435173e+00-8.100337411567e-09
    1.892935991239e-10 1.000000000000e+00 2.061000000000e+03 0.000000000000e+00
    2.400000000000e+00 0.000000000000e+00-5.587935447693e-09 5.700000000000e+01
    1.152000000000e+05 4.000000000000e+00
29 19  7  8 10  0  0.0 1.568323932588e-04-9.777068044059e-12 0.000000000000e+00
    9.100000000000e+01 3.393750000000e+01 3.761228098819e-09 3.800631033824e-02
    1.765787601471e-06 1.194883952849e-03 1.036189496517e-05 5.153734642029e+03
    1.224000000000e+05-3.725290298462e-08 1.565572737874e+00-1.490116119385e-08
    9.854768389631e-01 1.925000000000e+02 1.817275478121e+00-7.756751671271e-09
    1.428630936784e-12 1.000000000000e+00 2.061000000000e+03 0.000000000000e+00
    3.400000000000e+00 0.000000000000e+00-9.778887033463e-09 9.100000000000e+01
    1.152000000000e+05 4.000000000000e+00
17 19  7  8 10  0  0.0 8.501671254635e-05 6.593836587854e-12 0.000000000000e+00
    7.000000000000e+01 5.034375000000e+01 3.946235805133e-09-4.902077240794e-01
    2.639368176460e-06 1.286652858835e-02 9.827315807343e-06 5.153770984650e+03
    1.224000000000e+05-1.098960638046e-07 1.554362686291e+00 1.322478055954e-07
    9.839906838931e-01 2.056875000000e+02-1.711432496353e+00-8.089622679541e-09
    3.928735076157e-11 1.000000000000e+00 2.061000000000e+03 0.000000000000e+00
    2.400000000000e+00 0.000000000000e+00-1.117587089539e-08 7.000000000000e+01
    1.152000000000e+05 4.000000000000e+00
28 19  7  8 10  0  0.0 7.667117752135e-04-5.684341886081e-13 0.000000000000e+00
    5.800000000000e+01-8.468750000000e+00 4.345180994230e-09 4.265425869594e-01
   -4.451721906662e-07 1.899396744557e-02 8.611008524895e-06 5.153703451157e+03
    1.224000000000e+05-1.955777406693e-07 5.435546132543e-01-3.911554813385e-08
    9.818148302429e-01 2.317187500000e+02-1.463668148088e+00-8.332489938795e-09
   -4.785913638228e-10 1.000000000000e+00 2.061000000000e+03 0.000000000000e+00
    2.400000000000e+00 0.000000000000e+00-1.117587089539e-08 5.800000000000e+01
    1.152000000000e+05 4.000000000000e+00
 2 19  7  8 12  0  0.0-2.554035745561e-04-8.753886504564e-12 0.000000000000e+00
    6.000000000000e+01 2.109375000000e+01 4.934134097919e-09-1.246248382470e+00
    1.372769474983e-06 1.892185257748e-02 4.615634679794e-06 5.153741086960e+03
    1.296000000000e+05 9.313225746155e-09 2.484009938287e+00 4.526227712631e-07
    9.553831394511e-01 2.912812500000e+02-1.730821853118e+00-8.626787911772e-09
    1.125046862718e-10 1.000000000000e+00 2.061000000000e+03 0.000000000000e+00
    2.400000000000e+00 0.000000000000e+00-2.048909664154e-08 6.000000000000e+01
    1.224000000000e+05 4.000000000000e+00
 1 19  7  8 12  0  0.0-6.163492798805e-05-1.034550223267e-11 0.000000000000e+00
    3.700000000000e+01 5.062500000000e+00 4.232319150224e-09-1.521340300856e+00
    3.241002559662e-07 9.020610363223e-03 4.719942808151e-06 5.153651531219e+03
    1.296000000000e+05 1.583248376846e-07 2.553605113320e+00-7.078051567078e-08
    9.763236063114e-01 2.971562500000e+02 7.313456620195e-01-8.063907322679e-09
    1.325055193867e-10 1.000000000000e+00 2.061000000000e+03 0.000000000000e+00
    2.400000000000e+00 0.000000000000e+00 5.587935447693e-09 3.700000000000e+01
    1.224000000000e+05 4.000000000000e+00
 3 19  7  8 12  0  0.0 1.822081394494e-04-1.932676241267e-12 0.000000000000e+00
    3.000000000000e+01-8.090625000000e+01 4.360181619066e-09-2.508087210185e+00
   -4.127621650696e-06 2.326665329747e-03 7.484108209610e-06 5.153757972717e+03
    1.296000000000e+05-5.774199962616e-08-2.687789179242e+00 5.587935447693e-09
    9.634406698682e-01 2.367500000000e+02 6.288209558883e-01-8.031763126602e-09
   -1.060758470562e-10 1.000000000000e+00 2.061000000000e+03 0.000000000000e+00
    2.400000000000e+00 0.000000000000e+00 1.862645149231e-09 3.000000000000e+01
    1.224000000000e+05 4.000000000000e+00
10 19  7  8 12  0  0.0-9.143259376287e-06-1.273292582482e-11 0.000000000000e+00
    2.300000000000e+01-7.981250000000e+01 4.478400829085e-09 2.720742411077e+00
   -4.075467586517e-06 4.628426511772e-03 7.215887308121e-06 5.153663177490e+03
    1.296000000000e+05 3.725290298462e-09-2.691000265408e+00-5.029141902924e-08
    9.634528486612e-01 2.411875000000e+02-2.702768332464e+00-8.119623929214e-09
   -1.775073938955e-10 1.000000000000e+00 2.061000000000e+03 0.000000000000e+00
    2.400000000000e+00 0.000000000000e+00 1.862645149231e-09 2.300000000000e+01
    1.224000000000e+05 4.000000000000e+00
 5 19  7  8 12  0  0.0 1.555308699608e-07-2.273736754432e-13 0.000000000000e+00
    3.300000000000e+01-7.787500000000e+01 4.808771733216e-09 1.438416859562e+00
   -3.993511199951e-06 5.758691113442e-03 7.679685950279e-06 5.153723825455e+03
    1.296000000000e+05-8.195638656616e-08-2.715211063691e+00 4.656612873077e-08
    9.503292987670e-01 2.293125000000e+02 7.280860874337e-01-8.348919194568e-09
   -2.589393572922e-10 1.000000000000e+00 2.061000000000e+03 0.000000000000e+00
    2.400000000000e+00 0.000000000000e+00-1.117587089539e-08 3.300000000000e+01
    1.224000000000e+05 4.000000000000e+00
 7 19  7  8 12  0  0.0-6.015039980412e-05-7.730704965070e-12 0.000000000000e+00
    6.900000000000e+01 4.390625000000e+01 4.972349975478e-09-2.131137781643e+00
    1.966953277588e-06 1.298426114954e-02 5.869194865227e-06 5.153740314484e+03
    1.296000000000e+05 1.955777406693e-07-5.797465599256e-01-7.078051567078e-08
    9.552078950315e-01 2.614062500000e+02-2.450363514424e+00-8.234985877359e-09
    3.221562762449e-10 1.000000000000e+00 2.061000000000e+03 0.000000000000e+00
    2.400000000000e+00 0.000000000000e+00-1.117587089539e-08 6.900000000000e+01
    1.224000000000e+05 4.000000000000e+00
 8 19  7  8 12  0  0.0-1.504132524133e-04-1.477928890381e-12 0.000000000000e+00
    8.100000000000e+01 2.218750000000e+01 4.267677765909e-09 8.010068921922e-01
    1.173466444016e-06 4.390565678477e-03 9.177252650261e-06 5.153766920090e+03
    1.296000000000e+05 6.891787052155e-08 1.486169045295e+00 3.725290298462e-09
    9.701214802651e-01 2.032187500000e+02-2.057456296056e-01-7.994975879979e-09
   -9.893269237232e-11 1.000000000000e+00 2.061000000000e+03 0.000000000000e+00
    2.400000000000e+00 0.000000000000e+00 5.122274160385e-09 8.100000000000e+01
    1.224000000000e+05 4.000000000000e+00
 6 19  7  8 12  0  0.0 1.556552015245e-04-1.114131009672e-11 0.000000000000e+00
    6.300000000000e+01 6.718750000000e+00 4.403397704904e-09-1.296866585642e+00
    3.650784492493e-07 1.442183391191e-03 4.572793841362e-06 5.153611846924e+03
    1.296000000000e+05 7.450580596924e-08 2.545324305031e+00 5.587935447693e-08
    9.759568893218e-01 3.007187500000e+02-1.072451777750e+00-8.234985877359e-09
    1.382200431339e-10 1.000000000000e+00 2.061000000000e+03 0.000000000000e+00
    2.400000000000e+00 0.000000000000e+00 4.190951585770e-09 6.300000000000e+01
    1.224000000000e+05 4.000000000000e+00
